postal,latitude,longtitude,searchval,blk_no,road_name,building,address
821101,1.397946168,103.9059451,HDB-PUNGGOL,101A,PUNGGOL FIELD,HDB-PUNGGOL,101A PUNGGOL FIELD HDB-PUNGGOL SINGAPORE 821101
822101,1.397847151,103.9064361,HDB-PUNGGOL,101B,PUNGGOL FIELD,HDB-PUNGGOL,101B PUNGGOL FIELD HDB-PUNGGOL SINGAPORE 822101
823101,1.398090458,103.9065693,HDB-PUNGGOL,101C,PUNGGOL FIELD,HDB-PUNGGOL,101C PUNGGOL FIELD HDB-PUNGGOL SINGAPORE 823101
824101,1.398484785,103.9061439,HDB-PUNGGOL,101D,PUNGGOL FIELD,HDB-PUNGGOL,101D PUNGGOL FIELD HDB-PUNGGOL SINGAPORE 824101
821102,1.398833183,103.9057836,HDB-PUNGGOL,102A,PUNGGOL FIELD,HDB-PUNGGOL,102A PUNGGOL FIELD HDB-PUNGGOL SINGAPORE 821102
822102,1.399085258,103.9054714,HDB-PUNGGOL,102B,PUNGGOL FIELD,HDB-PUNGGOL,102B PUNGGOL FIELD HDB-PUNGGOL SINGAPORE 822102
823102,1.398761278,103.904939,HDB-PUNGGOL,102C,PUNGGOL FIELD,HDB-PUNGGOL,102C PUNGGOL FIELD HDB-PUNGGOL SINGAPORE 823102
824102,1.398480708,103.9052498,HDB-PUNGGOL,102D,PUNGGOL FIELD,HDB-PUNGGOL,102D PUNGGOL FIELD HDB-PUNGGOL SINGAPORE 824102
821103,1.398255318,103.904754,103A EDGEFIELD PLAINS SINGAPORE 821103,103A,EDGEFIELD PLAINS,NIL,103A EDGEFIELD PLAINS SINGAPORE 821103
822103,1.397731275,103.9046854,103B EDGEFIELD PLAINS SINGAPORE 822103,103B,EDGEFIELD PLAINS,NIL,103B EDGEFIELD PLAINS SINGAPORE 822103
823103,1.397266608,103.9045384,103C EDGEFIELD PLAINS SINGAPORE 823103,103C,EDGEFIELD PLAINS,NIL,103C EDGEFIELD PLAINS SINGAPORE 823103
821104,1.396805705,103.9050542,104A EDGEFIELD PLAINS SINGAPORE 821104,104A,EDGEFIELD PLAINS,NIL,104A EDGEFIELD PLAINS SINGAPORE 821104
822104,1.396608862,103.9053038,104B EDGEFIELD PLAINS SINGAPORE 822104,104B,EDGEFIELD PLAINS,NIL,104B EDGEFIELD PLAINS SINGAPORE 822104
821105,1.396941332,103.9057295,105A EDGEFIELD PLAINS SINGAPORE 821105,105A,EDGEFIELD PLAINS,NIL,105A EDGEFIELD PLAINS SINGAPORE 821105
822105,1.397206464,103.9060023,105B EDGEFIELD PLAINS SINGAPORE 822105,105B,EDGEFIELD PLAINS,NIL,105B EDGEFIELD PLAINS SINGAPORE 822105
823105,1.397672035,103.9055988,105C EDGEFIELD PLAINS SINGAPORE 823105,105C,EDGEFIELD PLAINS,NIL,105C EDGEFIELD PLAINS SINGAPORE 823105
824105,1.397175309,103.9052296,105D EDGEFIELD PLAINS SINGAPORE 824105,105D,EDGEFIELD PLAINS,NIL,105D EDGEFIELD PLAINS SINGAPORE 824105
821106,1.396604861,103.9083441,HDB-PUNGGOL,106A,PUNGGOL FIELD,HDB-PUNGGOL,106A PUNGGOL FIELD HDB-PUNGGOL SINGAPORE 821106
822106,1.397094532,103.9079554,HDB-PUNGGOL,106B,PUNGGOL FIELD,HDB-PUNGGOL,106B PUNGGOL FIELD HDB-PUNGGOL SINGAPORE 822106
823106,1.397366642,103.9075622,HDB-PUNGGOL,106C,PUNGGOL FIELD,HDB-PUNGGOL,106C PUNGGOL FIELD HDB-PUNGGOL SINGAPORE 823106
824106,1.397626067,103.9073581,HDB-PUNGGOL,106D,PUNGGOL FIELD,HDB-PUNGGOL,106D PUNGGOL FIELD HDB-PUNGGOL SINGAPORE 824106
821107,1.397198794,103.9068258,107A EDGEFIELD PLAINS SINGAPORE 821107,107A,EDGEFIELD PLAINS,NIL,107A EDGEFIELD PLAINS SINGAPORE 821107
822107,1.396837235,103.9072482,107B EDGEFIELD PLAINS SINGAPORE 822107,107B,EDGEFIELD PLAINS,NIL,107B EDGEFIELD PLAINS SINGAPORE 822107
823107,1.396621521,103.9076007,107C EDGEFIELD PLAINS SINGAPORE 823107,107C,EDGEFIELD PLAINS,NIL,107C EDGEFIELD PLAINS SINGAPORE 823107
824107,1.396238035,103.9080073,107D EDGEFIELD PLAINS SINGAPORE 824107,107D,EDGEFIELD PLAINS,NIL,107D EDGEFIELD PLAINS SINGAPORE 824107
821109,1.394721864,103.9098738,HDB-PUNGGOL,109A,EDGEDALE PLAINS,HDB-PUNGGOL,109A EDGEDALE PLAINS HDB-PUNGGOL SINGAPORE 821109
822109,1.394956962,103.9096342,HDB-PUNGGOL,109B,EDGEDALE PLAINS,HDB-PUNGGOL,109B EDGEDALE PLAINS HDB-PUNGGOL SINGAPORE 822109
823109,1.39517272,103.9092816,HDB-PUNGGOL,109C,EDGEDALE PLAINS,HDB-PUNGGOL,109C EDGEDALE PLAINS HDB-PUNGGOL SINGAPORE 823109
824109,1.395529913,103.9088596,HDB-PUNGGOL,109D,EDGEDALE PLAINS,HDB-PUNGGOL,109D EDGEDALE PLAINS HDB-PUNGGOL SINGAPORE 824109
821110,1.396124003,103.9092837,HDB-PUNGGOL,110A,PUNGGOL FIELD,HDB-PUNGGOL,110A PUNGGOL FIELD HDB-PUNGGOL SINGAPORE 821110
822110,1.395660239,103.909627,HDB-PUNGGOL,110B,PUNGGOL FIELD,HDB-PUNGGOL,110B PUNGGOL FIELD HDB-PUNGGOL SINGAPORE 822110
823110,1.395397332,103.910034,HDB-PUNGGOL,110C,PUNGGOL FIELD,HDB-PUNGGOL,110C PUNGGOL FIELD HDB-PUNGGOL SINGAPORE 823110
824110,1.395000712,103.910206,HDB-PUNGGOL,110D,PUNGGOL FIELD,HDB-PUNGGOL,110D PUNGGOL FIELD HDB-PUNGGOL SINGAPORE 824110
820111,1.396677886,103.9065791,111 EDGEFIELD PLAINS SINGAPORE 820111,111,EDGEFIELD PLAINS,NIL,111 EDGEFIELD PLAINS SINGAPORE 820111
820112,1.396245169,103.9070873,112 EDGEFIELD PLAINS SINGAPORE 820112,112,EDGEFIELD PLAINS,NIL,112 EDGEFIELD PLAINS SINGAPORE 820112
820114,1.395799718,103.9075556,114 EDGEFIELD PLAINS SINGAPORE 820114,114,EDGEFIELD PLAINS,NIL,114 EDGEFIELD PLAINS SINGAPORE 820114
820115,1.395128547,103.9072584,115 EDGEFIELD PLAINS SINGAPORE 820115,115,EDGEFIELD PLAINS,NIL,115 EDGEFIELD PLAINS SINGAPORE 820115
820116,1.39541568,103.9069122,116 EDGEFIELD PLAINS SINGAPORE 820116,116,EDGEFIELD PLAINS,NIL,116 EDGEFIELD PLAINS SINGAPORE 820116
820117,1.395787352,103.9066178,117 EDGEFIELD PLAINS SINGAPORE 820117,117,EDGEFIELD PLAINS,NIL,117 EDGEFIELD PLAINS SINGAPORE 820117
820118,1.396207066,103.9061471,118 EDGEFIELD PLAINS SINGAPORE 820118,118,EDGEFIELD PLAINS,NIL,118 EDGEFIELD PLAINS SINGAPORE 820118
821120,1.394512179,103.9079643,PUNGGOL EDGE,120A,EDGEDALE PLAINS,PUNGGOL EDGE,120A EDGEDALE PLAINS PUNGGOL EDGE SINGAPORE 821120
822120,1.394837781,103.9075847,PUNGGOL EDGE,120B,EDGEDALE PLAINS,PUNGGOL EDGE,120B EDGEDALE PLAINS PUNGGOL EDGE SINGAPORE 822120
821121,1.394002346,103.9086283,PUNGGOL EDGE,121A,EDGEDALE PLAINS,PUNGGOL EDGE,121A EDGEDALE PLAINS PUNGGOL EDGE SINGAPORE 821121
822121,1.393088703,103.9090418,PUNGGOL EDGE,121B,EDGEDALE PLAINS,PUNGGOL EDGE,121B EDGEDALE PLAINS PUNGGOL EDGE SINGAPORE 822121
821122,1.393509812,103.9091066,PUNGGOL EDGE,122A,EDGEDALE PLAINS,PUNGGOL EDGE,122A EDGEDALE PLAINS PUNGGOL EDGE SINGAPORE 821122
822122,1.394150091,103.909596,PUNGGOL EDGE,122B,EDGEDALE PLAINS,PUNGGOL EDGE,122B EDGEDALE PLAINS PUNGGOL EDGE SINGAPORE 822122
821126,1.39410055,103.9113562,HDB-PUNGGOL,126A,EDGEDALE PLAINS,HDB-PUNGGOL,126A EDGEDALE PLAINS HDB-PUNGGOL SINGAPORE 821126
822126,1.394548891,103.9111062,HDB-PUNGGOL,126B,EDGEDALE PLAINS,HDB-PUNGGOL,126B EDGEDALE PLAINS HDB-PUNGGOL SINGAPORE 822126
823126,1.393970531,103.9106636,HDB-PUNGGOL,126C,EDGEDALE PLAINS,HDB-PUNGGOL,126C EDGEDALE PLAINS HDB-PUNGGOL SINGAPORE 823126
824126,1.393783889,103.9109815,HDB-PUNGGOL,126D,EDGEDALE PLAINS,HDB-PUNGGOL,126D EDGEDALE PLAINS HDB-PUNGGOL SINGAPORE 824126
821128,1.393542263,103.9124285,HDB-PUNGGOL,128A,PUNGGOL FIELD WALK,HDB-PUNGGOL,128A PUNGGOL FIELD WALK HDB-PUNGGOL SINGAPORE 821128
822128,1.392987926,103.9128831,HDB-PUNGGOL,128B,PUNGGOL FIELD WALK,HDB-PUNGGOL,128B PUNGGOL FIELD WALK HDB-PUNGGOL SINGAPORE 822128
823128,1.392549137,103.9125609,HDB-PUNGGOL,128C,PUNGGOL FIELD WALK,HDB-PUNGGOL,128C PUNGGOL FIELD WALK HDB-PUNGGOL SINGAPORE 823128
824128,1.392967719,103.911962,HDB-PUNGGOL,128D,PUNGGOL FIELD WALK,HDB-PUNGGOL,128D PUNGGOL FIELD WALK HDB-PUNGGOL SINGAPORE 824128
828776,1.401316586,103.8968463,ECOPOLITAN,130,PUNGGOL WALK,ECOPOLITAN,130 PUNGGOL WALK ECOPOLITAN SINGAPORE 828776
828777,1.40089672,103.8967673,ECOPOLITAN,132,PUNGGOL WALK,ECOPOLITAN,132 PUNGGOL WALK ECOPOLITAN SINGAPORE 828777
820133,1.392831554,103.9106201,HDB-PUNGGOL,133,EDGEDALE PLAINS,HDB-PUNGGOL,133 EDGEDALE PLAINS HDB-PUNGGOL SINGAPORE 820133
828778,1.400689627,103.897008,ECOPOLITAN,134,PUNGGOL WALK,ECOPOLITAN,134 PUNGGOL WALK ECOPOLITAN SINGAPORE 828778
820135,1.392092062,103.9100225,HDB-PUNGGOL,135,EDGEDALE PLAINS,HDB-PUNGGOL,135 EDGEDALE PLAINS HDB-PUNGGOL SINGAPORE 820135
828700,1.40045552,103.8976596,ECOPOLITAN,138,PUNGGOL WALK,ECOPOLITAN,138 PUNGGOL WALK ECOPOLITAN SINGAPORE 828700
821160,1.395312099,103.9157082,160A PUNGGOL CENTRAL SINGAPORE 821160,160A,PUNGGOL CENTRAL,NIL,160A PUNGGOL CENTRAL SINGAPORE 821160
822160,1.395225289,103.9160007,160B PUNGGOL CENTRAL SINGAPORE 822160,160B,PUNGGOL CENTRAL,NIL,160B PUNGGOL CENTRAL SINGAPORE 822160
821161,1.3958161,103.9150182,HDB-PUNGGOL,161A,PUNGGOL CENTRAL,HDB-PUNGGOL,161A PUNGGOL CENTRAL HDB-PUNGGOL SINGAPORE 821161
822161,1.39572273,103.915306,HDB-PUNGGOL,161B,PUNGGOL CENTRAL,HDB-PUNGGOL,161B PUNGGOL CENTRAL HDB-PUNGGOL SINGAPORE 822161
821162,1.39636616,103.9142502,162A PUNGGOL CENTRAL SINGAPORE 821162,162A,PUNGGOL CENTRAL,NIL,162A PUNGGOL CENTRAL SINGAPORE 821162
822162,1.396272161,103.9145378,HDB-PUNGGOL,162B,PUNGGOL CENTRAL,HDB-PUNGGOL,162B PUNGGOL CENTRAL HDB-PUNGGOL SINGAPORE 822162
821163,1.395500602,103.9140598,163A PUNGGOL CENTRAL SINGAPORE 821163,163A,PUNGGOL CENTRAL,NIL,163A PUNGGOL CENTRAL SINGAPORE 821163
822163,1.39563022,103.9137722,163B PUNGGOL CENTRAL SINGAPORE 822163,163B,PUNGGOL CENTRAL,NIL,163B PUNGGOL CENTRAL SINGAPORE 822163
821165,1.394998966,103.9147543,165A PUNGGOL CENTRAL SINGAPORE 821165,165A,PUNGGOL CENTRAL,NIL,165A PUNGGOL CENTRAL SINGAPORE 821165
822165,1.395128032,103.9144671,165B PUNGGOL CENTRAL SINGAPORE 822165,165B,PUNGGOL CENTRAL,NIL,165B PUNGGOL CENTRAL SINGAPORE 822165
821166,1.394448669,103.9155224,166A PUNGGOL CENTRAL SINGAPORE 821166,166A,PUNGGOL CENTRAL,NIL,166A PUNGGOL CENTRAL SINGAPORE 821166
822166,1.394578126,103.915235,166B PUNGGOL CENTRAL SINGAPORE 822166,166B,PUNGGOL CENTRAL,NIL,166B PUNGGOL CENTRAL SINGAPORE 822166
821167,1.393908248,103.9151069,THE SUNDIAL,167A,PUNGGOL EAST,THE SUNDIAL,167A PUNGGOL EAST THE SUNDIAL SINGAPORE 821167
822167,1.394227136,103.9149774,THE SUNDIAL,167B,PUNGGOL EAST,THE SUNDIAL,167B PUNGGOL EAST THE SUNDIAL SINGAPORE 822167
823167,1.394388962,103.9147524,THE SUNDIAL,167C,PUNGGOL EAST,THE SUNDIAL,167C PUNGGOL EAST THE SUNDIAL SINGAPORE 823167
824167,1.394548399,103.9145293,THE SUNDIAL,167D,PUNGGOL EAST,THE SUNDIAL,167D PUNGGOL EAST THE SUNDIAL SINGAPORE 824167
821168,1.394589169,103.9142388,THE SUNDIAL,168A,PUNGGOL EAST,THE SUNDIAL,168A PUNGGOL EAST THE SUNDIAL SINGAPORE 821168
822168,1.394496029,103.913979,THE SUNDIAL,168B,PUNGGOL EAST,THE SUNDIAL,168B PUNGGOL EAST THE SUNDIAL SINGAPORE 822168
823168,1.393903151,103.9137768,THE NAUTILUS @ PUNGGOL,168C,PUNGGOL FIELD,THE NAUTILUS @ PUNGGOL,168C PUNGGOL FIELD THE NAUTILUS @ PUNGGOL SINGAPORE 823168
824168,1.393746768,103.9140016,THE NAUTILUS @ PUNGGOL,168D,PUNGGOL FIELD,THE NAUTILUS @ PUNGGOL,168D PUNGGOL FIELD THE NAUTILUS @ PUNGGOL SINGAPORE 824168
821169,1.393082747,103.9142822,THE NAUTILUS @ PUNGGOL,169A,PUNGGOL FIELD,THE NAUTILUS @ PUNGGOL,169A PUNGGOL FIELD THE NAUTILUS @ PUNGGOL SINGAPORE 821169
822169,1.393224665,103.9140677,THE NAUTILUS @ PUNGGOL,169B,PUNGGOL FIELD,THE NAUTILUS @ PUNGGOL,169B PUNGGOL FIELD THE NAUTILUS @ PUNGGOL SINGAPORE 822169
823169,1.393621092,103.9142236,THE NAUTILUS @ PUNGGOL,169C,PUNGGOL FIELD,THE NAUTILUS @ PUNGGOL,169C PUNGGOL FIELD THE NAUTILUS @ PUNGGOL SINGAPORE 823169
821170,1.393560948,103.9148607,THE NAUTILUS @ PUNGGOL,170A,PUNGGOL FIELD,THE NAUTILUS @ PUNGGOL,170A PUNGGOL FIELD THE NAUTILUS @ PUNGGOL SINGAPORE 821170
822170,1.393337746,103.9147009,THE NAUTILUS @ PUNGGOL,170B,PUNGGOL FIELD,THE NAUTILUS @ PUNGGOL,170B PUNGGOL FIELD THE NAUTILUS @ PUNGGOL SINGAPORE 822170
823170,1.393107842,103.9145464,THE NAUTILUS @ PUNGGOL,170C,PUNGGOL FIELD,THE NAUTILUS @ PUNGGOL,170C PUNGGOL FIELD THE NAUTILUS @ PUNGGOL SINGAPORE 823170
821171,1.394630782,103.9122939,HDB-PUNGGOL,171A,EDGEDALE PLAINS,HDB-PUNGGOL,171A EDGEDALE PLAINS HDB-PUNGGOL SINGAPORE 821171
822171,1.394977318,103.9127175,HDB-PUNGGOL,171B,EDGEDALE PLAINS,HDB-PUNGGOL,171B EDGEDALE PLAINS HDB-PUNGGOL SINGAPORE 822171
823171,1.394775289,103.9134368,HDB-PUNGGOL,171C,EDGEDALE PLAINS,HDB-PUNGGOL,171C EDGEDALE PLAINS HDB-PUNGGOL SINGAPORE 823171
821172,1.39533468,103.9114339,172A EDGEDALE PLAINS SINGAPORE 821172,172A,EDGEDALE PLAINS,NIL,172A EDGEDALE PLAINS SINGAPORE 821172
822172,1.395724021,103.9118054,172B EDGEDALE PLAINS SINGAPORE 822172,172B,EDGEDALE PLAINS,NIL,172B EDGEDALE PLAINS SINGAPORE 822172
823172,1.395444577,103.9124654,172C EDGEDALE PLAINS SINGAPORE 823172,172C,EDGEDALE PLAINS,NIL,172C EDGEDALE PLAINS SINGAPORE 823172
821173,1.397013086,103.9093541,HDB-PUNGGOL,173A,PUNGGOL FIELD,HDB-PUNGGOL,173A PUNGGOL FIELD HDB-PUNGGOL SINGAPORE 821173
822173,1.396550267,103.910063,HDB-PUNGGOL,173B,PUNGGOL FIELD,HDB-PUNGGOL,173B PUNGGOL FIELD HDB-PUNGGOL SINGAPORE 822173
823173,1.396185406,103.9105619,HDB-PUNGGOL,173C,PUNGGOL FIELD,HDB-PUNGGOL,173C PUNGGOL FIELD HDB-PUNGGOL SINGAPORE 823173
824173,1.396007992,103.9107647,HDB-PUNGGOL,173D,PUNGGOL FIELD,HDB-PUNGGOL,173D PUNGGOL FIELD HDB-PUNGGOL SINGAPORE 824173
821174,1.39637824,103.9112808,HDB-PUNGGOL,174A,EDGEDALE PLAINS,HDB-PUNGGOL,174A EDGEDALE PLAINS HDB-PUNGGOL SINGAPORE 821174
822174,1.396731877,103.9108129,HDB-PUNGGOL,174B,EDGEDALE PLAINS,HDB-PUNGGOL,174B EDGEDALE PLAINS HDB-PUNGGOL SINGAPORE 822174
823174,1.396973051,103.9104245,HDB-PUNGGOL,174C,EDGEDALE PLAINS,HDB-PUNGGOL,174C EDGEDALE PLAINS HDB-PUNGGOL SINGAPORE 823174
824174,1.397359333,103.9101188,HDB-PUNGGOL,174D,EDGEDALE PLAINS,HDB-PUNGGOL,174D EDGEDALE PLAINS HDB-PUNGGOL SINGAPORE 824174
821175,1.397404216,103.9089737,HDB-PUNGGOL,175A,PUNGGOL FIELD,HDB-PUNGGOL,175A PUNGGOL FIELD HDB-PUNGGOL SINGAPORE 821175
822175,1.397770531,103.9086476,HDB-PUNGGOL,175B,PUNGGOL FIELD,HDB-PUNGGOL,175B PUNGGOL FIELD HDB-PUNGGOL SINGAPORE 822175
823175,1.398134688,103.9081481,HDB-PUNGGOL,175C,PUNGGOL FIELD,HDB-PUNGGOL,175C PUNGGOL FIELD HDB-PUNGGOL SINGAPORE 823175
824175,1.398470605,103.9077693,HDB-PUNGGOL,175D,PUNGGOL FIELD,HDB-PUNGGOL,175D PUNGGOL FIELD HDB-PUNGGOL SINGAPORE 824175
821176,1.398860781,103.9082666,176A EDGEFIELD PLAINS SINGAPORE 821176,176A,EDGEFIELD PLAINS,NIL,176A EDGEFIELD PLAINS SINGAPORE 821176
822176,1.398557354,103.908509,176B EDGEFIELD PLAINS SINGAPORE 822176,176B,EDGEFIELD PLAINS,NIL,176B EDGEFIELD PLAINS SINGAPORE 822176
823176,1.398310553,103.9087837,176C EDGEFIELD PLAINS SINGAPORE 823176,176C,EDGEFIELD PLAINS,NIL,176C EDGEFIELD PLAINS SINGAPORE 823176
824176,1.397942406,103.9094482,176D EDGEFIELD PLAINS SINGAPORE 824176,176D,EDGEFIELD PLAINS,NIL,176D EDGEFIELD PLAINS SINGAPORE 824176
820178,1.399406544,103.908431,178 EDGEFIELD PLAINS SINGAPORE 820178,178,EDGEFIELD PLAINS,NIL,178 EDGEFIELD PLAINS SINGAPORE 820178
820181,1.399144305,103.9089833,181 EDGEFIELD PLAINS SINGAPORE 820181,181,EDGEFIELD PLAINS,NIL,181 EDGEFIELD PLAINS SINGAPORE 820181
820182,1.398921796,103.9093113,182 EDGEFIELD PLAINS SINGAPORE 820182,182,EDGEFIELD PLAINS,NIL,182 EDGEFIELD PLAINS SINGAPORE 820182
820183,1.398810031,103.9098456,183 EDGEFIELD PLAINS SINGAPORE 820183,183,EDGEFIELD PLAINS,NIL,183 EDGEFIELD PLAINS SINGAPORE 820183
820184,1.398515832,103.9101406,184 EDGEFIELD PLAINS SINGAPORE 820184,184,EDGEFIELD PLAINS,NIL,184 EDGEFIELD PLAINS SINGAPORE 820184
820185,1.398068147,103.9101669,185 EDGEFIELD PLAINS SINGAPORE 820185,185,EDGEFIELD PLAINS,NIL,185 EDGEFIELD PLAINS SINGAPORE 820185
820186,1.398563328,103.9111,HDB-PUNGGOL,186,PUNGGOL CENTRAL,HDB-PUNGGOL,186 PUNGGOL CENTRAL HDB-PUNGGOL SINGAPORE 820186
820187,1.398752034,103.9108807,HDB-PUNGGOL,187,PUNGGOL CENTRAL,HDB-PUNGGOL,187 PUNGGOL CENTRAL HDB-PUNGGOL SINGAPORE 820187
820188,1.398938692,103.9105385,188 PUNGGOL CENTRAL SINGAPORE 820188,188,PUNGGOL CENTRAL,NIL,188 PUNGGOL CENTRAL SINGAPORE 820188
820190,1.39924142,103.9100543,190 PUNGGOL CENTRAL SINGAPORE 820190,190,PUNGGOL CENTRAL,NIL,190 PUNGGOL CENTRAL SINGAPORE 820190
820191,1.399512505,103.9097527,HDB-PUNGGOL,191,PUNGGOL CENTRAL,HDB-PUNGGOL,191 PUNGGOL CENTRAL HDB-PUNGGOL SINGAPORE 820191
820192,1.399770926,103.9095143,192 PUNGGOL CENTRAL SINGAPORE 820192,192,PUNGGOL CENTRAL,NIL,192 PUNGGOL CENTRAL SINGAPORE 820192
820193,1.399967929,103.909013,193 EDGEFIELD PLAINS SINGAPORE 820193,193,EDGEFIELD PLAINS,NIL,193 EDGEFIELD PLAINS SINGAPORE 820193
821195,1.401386916,103.9060812,THE PERIWINKLE,195A,PUNGGOL ROAD,THE PERIWINKLE,195A PUNGGOL ROAD THE PERIWINKLE SINGAPORE 821195
822195,1.401372012,103.9064857,THE PERIWINKLE,195B,PUNGGOL ROAD,THE PERIWINKLE,195B PUNGGOL ROAD THE PERIWINKLE SINGAPORE 822195
823195,1.401092071,103.9068312,THE PERIWINKLE,195C,PUNGGOL ROAD,THE PERIWINKLE,195C PUNGGOL ROAD THE PERIWINKLE SINGAPORE 823195
824195,1.401367945,103.907096,THE PERIWINKLE,195D,PUNGGOL ROAD,THE PERIWINKLE,195D PUNGGOL ROAD THE PERIWINKLE SINGAPORE 824195
825195,1.401717992,103.9071773,THE PERIWINKLE,195E,PUNGGOL ROAD,THE PERIWINKLE,195E PUNGGOL ROAD THE PERIWINKLE SINGAPORE 825195
821196,1.399203942,103.9067408,HDB-PUNGGOL,196A,PUNGGOL FIELD,HDB-PUNGGOL,196A PUNGGOL FIELD HDB-PUNGGOL SINGAPORE 821196
822196,1.399007111,103.9069906,HDB-PUNGGOL,196B,PUNGGOL FIELD,HDB-PUNGGOL,196B PUNGGOL FIELD HDB-PUNGGOL SINGAPORE 822196
823196,1.399279585,103.9074976,HDB-PUNGGOL,196C,PUNGGOL FIELD,HDB-PUNGGOL,196C PUNGGOL FIELD HDB-PUNGGOL SINGAPORE 823196
824196,1.399660814,103.9072345,HDB-PUNGGOL,196D,PUNGGOL FIELD,HDB-PUNGGOL,196D PUNGGOL FIELD HDB-PUNGGOL SINGAPORE 824196
821197,1.399774254,103.9068498,HDB-PUNGGOL,197A,PUNGGOL FIELD,HDB-PUNGGOL,197A PUNGGOL FIELD HDB-PUNGGOL SINGAPORE 821197
822197,1.400131511,103.9066476,HDB-PUNGGOL,197B,PUNGGOL FIELD,HDB-PUNGGOL,197B PUNGGOL FIELD HDB-PUNGGOL SINGAPORE 822197
821199,1.399772996,103.9060012,HDB-PUNGGOL,199A,PUNGGOL FIELD,HDB-PUNGGOL,199A PUNGGOL FIELD HDB-PUNGGOL SINGAPORE 821199
822199,1.39996998,103.9057512,HDB-PUNGGOL,199B,PUNGGOL FIELD,HDB-PUNGGOL,199B PUNGGOL FIELD HDB-PUNGGOL SINGAPORE 822199
823199,1.400647082,103.9060066,HDB-PUNGGOL,199C,PUNGGOL FIELD,HDB-PUNGGOL,199C PUNGGOL FIELD HDB-PUNGGOL SINGAPORE 823199
824199,1.400455442,103.9062079,HDB-PUNGGOL,199D,PUNGGOL FIELD,HDB-PUNGGOL,199D PUNGGOL FIELD HDB-PUNGGOL SINGAPORE 824199
821201,1.400085464,103.9035356,201A PUNGGOL FIELD SINGAPORE 821201,201A,PUNGGOL FIELD,NIL,201A PUNGGOL FIELD SINGAPORE 821201
822201,1.399978043,103.9038532,201B PUNGGOL FIELD SINGAPORE 822201,201B,PUNGGOL FIELD,NIL,201B PUNGGOL FIELD SINGAPORE 822201
823201,1.399331482,103.903712,201C PUNGGOL FIELD SINGAPORE 823201,201C,PUNGGOL FIELD,NIL,201C PUNGGOL FIELD SINGAPORE 823201
824201,1.399684321,103.9033781,201D PUNGGOL FIELD SINGAPORE 824201,201D,PUNGGOL FIELD,NIL,201D PUNGGOL FIELD SINGAPORE 824201
821202,1.399664223,103.9044956,202A PUNGGOL FIELD SINGAPORE 821202,202A,PUNGGOL FIELD,NIL,202A PUNGGOL FIELD SINGAPORE 821202
822202,1.399234781,103.9042775,202B PUNGGOL FIELD SINGAPORE 822202,202B,PUNGGOL FIELD,NIL,202B PUNGGOL FIELD SINGAPORE 822202
821203,1.398524282,103.9038627,203A PUNGGOL FIELD SINGAPORE 821203,203A,PUNGGOL FIELD,NIL,203A PUNGGOL FIELD SINGAPORE 821203
822203,1.398048415,103.9034765,203B PUNGGOL FIELD SINGAPORE 822203,203B,PUNGGOL FIELD,NIL,203B PUNGGOL FIELD SINGAPORE 822203
821204,1.398778276,103.9029109,204A PUNGGOL FIELD SINGAPORE 821204,204A,PUNGGOL FIELD,NIL,204A PUNGGOL FIELD SINGAPORE 821204
822204,1.398682245,103.9032111,204B PUNGGOL FIELD SINGAPORE 822204,204B,PUNGGOL FIELD,NIL,204B PUNGGOL FIELD SINGAPORE 822204
823204,1.398033215,103.9030726,204C PUNGGOL FIELD SINGAPORE 823204,204C,PUNGGOL FIELD,NIL,204C PUNGGOL FIELD SINGAPORE 823204
824204,1.398311222,103.9025511,204D PUNGGOL FIELD SINGAPORE 824204,204D,PUNGGOL FIELD,NIL,204D PUNGGOL FIELD SINGAPORE 824204
821205,1.39852262,103.9021117,205A PUNGGOL FIELD SINGAPORE 821205,205A,PUNGGOL FIELD,NIL,205A PUNGGOL FIELD SINGAPORE 821205
821206,1.39922536,103.901496,206A PUNGGOL PLACE SINGAPORE 821206,206A,PUNGGOL PLACE,NIL,206A PUNGGOL PLACE SINGAPORE 821206
821207,1.400286679,103.9010124,PUNGGOL SAILS,207A,PUNGGOL PLACE,PUNGGOL SAILS,207A PUNGGOL PLACE PUNGGOL SAILS SINGAPORE 821207
822207,1.400325589,103.9007353,PUNGGOL SAILS,207B,PUNGGOL PLACE,PUNGGOL SAILS,207B PUNGGOL PLACE PUNGGOL SAILS SINGAPORE 822207
823207,1.400653675,103.9003487,PUNGGOL SAILS,207C,PUNGGOL PLACE,PUNGGOL SAILS,207C PUNGGOL PLACE PUNGGOL SAILS SINGAPORE 823207
824207,1.400946529,103.9007084,PUNGGOL SAILS,207D,PUNGGOL PLACE,PUNGGOL SAILS,207D PUNGGOL PLACE PUNGGOL SAILS SINGAPORE 824207
821208,1.401463246,103.9007611,PUNGGOL SAILS,208A,PUNGGOL PLACE,PUNGGOL SAILS,208A PUNGGOL PLACE PUNGGOL SAILS SINGAPORE 821208
822208,1.401361543,103.9011272,PUNGGOL SAILS,208B,PUNGGOL PLACE,PUNGGOL SAILS,208B PUNGGOL PLACE PUNGGOL SAILS SINGAPORE 822208
823208,1.400941197,103.9011446,PUNGGOL SAILS,208C,PUNGGOL PLACE,PUNGGOL SAILS,208C PUNGGOL PLACE PUNGGOL SAILS SINGAPORE 823208
821209,1.399730681,103.9007321,PUNGGOL CREST,209A,PUNGGOL PLACE,PUNGGOL CREST,209A PUNGGOL PLACE PUNGGOL CREST SINGAPORE 821209
822209,1.399730514,103.9009354,PUNGGOL CREST,209B,PUNGGOL PLACE,PUNGGOL CREST,209B PUNGGOL PLACE PUNGGOL CREST SINGAPORE 822209
823209,1.39930949,103.9007923,PUNGGOL CREST,209C,PUNGGOL PLACE,PUNGGOL CREST,209C PUNGGOL PLACE PUNGGOL CREST SINGAPORE 823209
821210,1.400068281,103.9003993,PUNGGOL CREST,210A,PUNGGOL PLACE,PUNGGOL CREST,210A PUNGGOL PLACE PUNGGOL CREST SINGAPORE 821210
822210,1.400186245,103.900097,PUNGGOL CREST,210B,PUNGGOL PLACE,PUNGGOL CREST,210B PUNGGOL PLACE PUNGGOL CREST SINGAPORE 822210
823210,1.399654404,103.8999156,PUNGGOL CREST,210C,PUNGGOL PLACE,PUNGGOL CREST,210C PUNGGOL PLACE PUNGGOL CREST SINGAPORE 823210
821211,1.401759847,103.8999443,PUNGGOL RIPPLES,211A,PUNGGOL WALK,PUNGGOL RIPPLES,211A PUNGGOL WALK PUNGGOL RIPPLES SINGAPORE 821211
822211,1.401169895,103.8999209,PUNGGOL RIPPLES,211B,PUNGGOL WALK,PUNGGOL RIPPLES,211B PUNGGOL WALK PUNGGOL RIPPLES SINGAPORE 822211
823211,1.400760493,103.8996136,PUNGGOL RIPPLES,211C,PUNGGOL WALK,PUNGGOL RIPPLES,211C PUNGGOL WALK PUNGGOL RIPPLES SINGAPORE 823211
824211,1.400935632,103.8991985,PUNGGOL RIPPLES,211D,PUNGGOL WALK,PUNGGOL RIPPLES,211D PUNGGOL WALK PUNGGOL RIPPLES SINGAPORE 824211
821212,1.399960561,103.8989836,PUNGGOL WAVES,212A,PUNGGOL WALK,PUNGGOL WAVES,212A PUNGGOL WALK PUNGGOL WAVES SINGAPORE 821212
822212,1.400404239,103.8994843,PUNGGOL WAVES,212B,PUNGGOL WALK,PUNGGOL WAVES,212B PUNGGOL WALK PUNGGOL WAVES SINGAPORE 822212
821213,1.400309003,103.8980751,PUNGGOL WAVES,213A,PUNGGOL WALK,PUNGGOL WAVES,213A PUNGGOL WALK PUNGGOL WAVES SINGAPORE 821213
822213,1.400719621,103.8984847,PUNGGOL WAVES,213B,PUNGGOL WALK,PUNGGOL WAVES,213B PUNGGOL WALK PUNGGOL WAVES SINGAPORE 822213
823213,1.400598495,103.8989202,PUNGGOL WAVES,213C,PUNGGOL WALK,PUNGGOL WAVES,213C PUNGGOL WALK PUNGGOL WAVES SINGAPORE 823213
821217,1.402985918,103.8950208,MATILDA PORTICO,217A,SUMANG WALK,MATILDA PORTICO,217A SUMANG WALK MATILDA PORTICO SINGAPORE 821217
822217,1.402401614,103.894935,MATILDA PORTICO,217B,SUMANG WALK,MATILDA PORTICO,217B SUMANG WALK MATILDA PORTICO SINGAPORE 822217
823217,1.40235851,103.8954941,MATILDA PORTICO,217C,SUMANG WALK,MATILDA PORTICO,217C SUMANG WALK MATILDA PORTICO SINGAPORE 823217
824217,1.402049858,103.8961662,MATILDA PORTICO,217D,SUMANG WALK,MATILDA PORTICO,217D SUMANG WALK MATILDA PORTICO SINGAPORE 824217
821220,1.401523084,103.8946278,MATILDA EDGE,220A,SUMANG LANE,MATILDA EDGE,220A SUMANG LANE MATILDA EDGE SINGAPORE 821220
822220,1.401510336,103.8954201,MATILDA EDGE,220B,SUMANG LANE,MATILDA EDGE,220B SUMANG LANE MATILDA EDGE SINGAPORE 822220
823220,1.401610263,103.8960025,MATILDA EDGE,220C,SUMANG LANE,MATILDA EDGE,220C SUMANG LANE MATILDA EDGE SINGAPORE 823220
821221,1.400982072,103.8956727,MATILDA EDGE,221A,SUMANG LANE,MATILDA EDGE,221A SUMANG LANE MATILDA EDGE SINGAPORE 821221
822221,1.401019438,103.895063,MATILDA EDGE,221B,SUMANG LANE,MATILDA EDGE,221B SUMANG LANE MATILDA EDGE SINGAPORE 822221
821222,1.40112611,103.8934778,MATILDA EDGE,222A,SUMANG LANE,MATILDA EDGE,222A SUMANG LANE MATILDA EDGE SINGAPORE 821222
821223,1.401263279,103.8928374,MATILDA EDGE,223A,SUMANG LANE,MATILDA EDGE,223A SUMANG LANE MATILDA EDGE SINGAPORE 821223
821224,1.401956216,103.8928113,MATILDA EDGE,224A,SUMANG LANE,MATILDA EDGE,224A SUMANG LANE MATILDA EDGE SINGAPORE 821224
822224,1.401831806,103.8933737,MATILDA EDGE,224B,SUMANG LANE,MATILDA EDGE,224B SUMANG LANE MATILDA EDGE SINGAPORE 822224
823224,1.401622845,103.8939796,MATILDA EDGE,224C,SUMANG LANE,MATILDA EDGE,224C SUMANG LANE MATILDA EDGE SINGAPORE 823224
821226,1.402728129,103.8931013,THE VERANDAH @ MATILDA,226A,SUMANG LANE,THE VERANDAH @ MATILDA,226A SUMANG LANE THE VERANDAH @ MATILDA SINGAPORE 821226
822226,1.40268498,103.893609,THE VERANDAH @ MATILDA,226B,SUMANG LANE,THE VERANDAH @ MATILDA,226B SUMANG LANE THE VERANDAH @ MATILDA SINGAPORE 822226
823226,1.402581096,103.8940175,THE VERANDAH @ MATILDA,226C,SUMANG LANE,THE VERANDAH @ MATILDA,226C SUMANG LANE THE VERANDAH @ MATILDA SINGAPORE 823226
821227,1.403589257,103.8929587,THE VERANDAH @ MATILDA,227A,SUMANG LANE,THE VERANDAH @ MATILDA,227A SUMANG LANE THE VERANDAH @ MATILDA SINGAPORE 821227
822227,1.403474145,103.8937238,THE VERANDAH @ MATILDA,227B,SUMANG LANE,THE VERANDAH @ MATILDA,227B SUMANG LANE THE VERANDAH @ MATILDA SINGAPORE 822227
821231,1.402059178,103.8918791,MATILDA COURT,231A,SUMANG LANE,MATILDA COURT,231A SUMANG LANE MATILDA COURT SINGAPORE 821231
822231,1.402128424,103.8914669,MATILDA COURT,231B,SUMANG LANE,MATILDA COURT,231B SUMANG LANE MATILDA COURT SINGAPORE 822231
821232,1.402186927,103.8910433,MATILDA COURT,232A,SUMANG LANE,MATILDA COURT,232A SUMANG LANE MATILDA COURT SINGAPORE 821232
822232,1.402301276,103.8906333,MATILDA COURT,232B,SUMANG LANE,MATILDA COURT,232B SUMANG LANE MATILDA COURT SINGAPORE 822232
823232,1.402040357,103.8901187,MATILDA COURT,232C,SUMANG LANE,MATILDA COURT,232C SUMANG LANE MATILDA COURT SINGAPORE 823232
821233,1.401581592,103.8903108,MATILDA COURT,233A,SUMANG LANE,MATILDA COURT,233A SUMANG LANE MATILDA COURT SINGAPORE 821233
822233,1.401652532,103.890713,MATILDA COURT,233B,SUMANG LANE,MATILDA COURT,233B SUMANG LANE MATILDA COURT SINGAPORE 822233
823233,1.401731602,103.8910415,MATILDA COURT,233C,SUMANG LANE,MATILDA COURT,233C SUMANG LANE MATILDA COURT SINGAPORE 823233
821234,1.401670967,103.8918975,MATILDA COURT,234A,SUMANG LANE,MATILDA COURT,234A SUMANG LANE MATILDA COURT SINGAPORE 821234
822234,1.4015204,103.8915648,MATILDA COURT,234B,SUMANG LANE,MATILDA COURT,234B SUMANG LANE MATILDA COURT SINGAPORE 822234
821256,1.406091605,103.8957066,PUNGGOL OPAL,256A,SUMANG WALK,PUNGGOL OPAL,256A SUMANG WALK PUNGGOL OPAL SINGAPORE 821256
822256,1.406049079,103.8961795,PUNGGOL OPAL,256B,SUMANG WALK,PUNGGOL OPAL,256B SUMANG WALK PUNGGOL OPAL SINGAPORE 822256
823256,1.405402037,103.8959105,PUNGGOL OPAL,256C,SUMANG WALK,PUNGGOL OPAL,256C SUMANG WALK PUNGGOL OPAL SINGAPORE 823256
824256,1.404948702,103.8960077,PUNGGOL OPAL,256D,SUMANG WALK,PUNGGOL OPAL,256D SUMANG WALK PUNGGOL OPAL SINGAPORE 824256
821258,1.403799309,103.8959881,PUNGGOL TOPAZ,258A,PUNGGOL FIELD,PUNGGOL TOPAZ,258A PUNGGOL FIELD PUNGGOL TOPAZ SINGAPORE 821258
822258,1.403682308,103.8964614,PUNGGOL TOPAZ,258B,PUNGGOL FIELD,PUNGGOL TOPAZ,258B PUNGGOL FIELD PUNGGOL TOPAZ SINGAPORE 822258
823258,1.404141932,103.8963636,PUNGGOL TOPAZ,258C,PUNGGOL FIELD,PUNGGOL TOPAZ,258C PUNGGOL FIELD PUNGGOL TOPAZ SINGAPORE 823258
821259,1.4038234,103.8955478,PUNGGOL TOPAZ,259A,PUNGGOL FIELD,PUNGGOL TOPAZ,259A PUNGGOL FIELD PUNGGOL TOPAZ SINGAPORE 821259
822259,1.403878308,103.8952388,PUNGGOL TOPAZ,259B,PUNGGOL FIELD,PUNGGOL TOPAZ,259B PUNGGOL FIELD PUNGGOL TOPAZ SINGAPORE 822259
823259,1.404534086,103.8956655,PUNGGOL TOPAZ,259C,PUNGGOL FIELD,PUNGGOL TOPAZ,259C PUNGGOL FIELD PUNGGOL TOPAZ SINGAPORE 823259
821260,1.404797138,103.8966161,PUNGGOL TOPAZ,260A,PUNGGOL WAY,PUNGGOL TOPAZ,260A PUNGGOL WAY PUNGGOL TOPAZ SINGAPORE 821260
822260,1.404884893,103.8963513,PUNGGOL TOPAZ,260B,PUNGGOL WAY,PUNGGOL TOPAZ,260B PUNGGOL WAY PUNGGOL TOPAZ SINGAPORE 822260
823260,1.40524575,103.8964109,PUNGGOL TOPAZ,260C,PUNGGOL WAY,PUNGGOL TOPAZ,260C PUNGGOL WAY PUNGGOL TOPAZ SINGAPORE 823260
821261,1.405969915,103.8968033,PUNGGOL TOPAZ,261A,PUNGGOL WAY,PUNGGOL TOPAZ,261A PUNGGOL WAY PUNGGOL TOPAZ SINGAPORE 821261
822261,1.406015347,103.8965083,PUNGGOL TOPAZ,261B,PUNGGOL WAY,PUNGGOL TOPAZ,261B PUNGGOL WAY PUNGGOL TOPAZ SINGAPORE 822261
823261,1.405623025,103.8964704,PUNGGOL TOPAZ,261C,PUNGGOL WAY,PUNGGOL TOPAZ,261C PUNGGOL WAY PUNGGOL TOPAZ SINGAPORE 823261
821264,1.405977041,103.8985441,PUNGGOL EMERALD,264A,PUNGGOL WAY,PUNGGOL EMERALD,264A PUNGGOL WAY PUNGGOL EMERALD SINGAPORE 821264
821265,1.405666869,103.8987156,PUNGGOL EMERALD,265A,PUNGGOL WAY,PUNGGOL EMERALD,265A PUNGGOL WAY PUNGGOL EMERALD SINGAPORE 821265
822265,1.405199693,103.8986626,PUNGGOL EMERALD,265B,PUNGGOL WAY,PUNGGOL EMERALD,265B PUNGGOL WAY PUNGGOL EMERALD SINGAPORE 822265
823265,1.40499729,103.8985186,PUNGGOL EMERALD,265C,PUNGGOL WAY,PUNGGOL EMERALD,265C PUNGGOL WAY PUNGGOL EMERALD SINGAPORE 823265
824265,1.40482605,103.8983017,PUNGGOL EMERALD,265D,PUNGGOL WAY,PUNGGOL EMERALD,265D PUNGGOL WAY PUNGGOL EMERALD SINGAPORE 824265
821266,1.405960716,103.8979707,PUNGGOL EMERALD,266A,PUNGGOL WAY,PUNGGOL EMERALD,266A PUNGGOL WAY PUNGGOL EMERALD SINGAPORE 821266
822266,1.405574739,103.8979257,PUNGGOL EMERALD,266B,PUNGGOL WAY,PUNGGOL EMERALD,266B PUNGGOL WAY PUNGGOL EMERALD SINGAPORE 822266
823266,1.405154198,103.8978052,PUNGGOL EMERALD,266C,PUNGGOL WAY,PUNGGOL EMERALD,266C PUNGGOL WAY PUNGGOL EMERALD SINGAPORE 823266
824266,1.404939601,103.8980368,PUNGGOL EMERALD,266D,PUNGGOL WAY,PUNGGOL EMERALD,266D PUNGGOL WAY PUNGGOL EMERALD SINGAPORE 824266
821267,1.404559094,103.8975049,PUNGGOL SAPPHIRE,267A,PUNGGOL FIELD,PUNGGOL SAPPHIRE,267A PUNGGOL FIELD PUNGGOL SAPPHIRE SINGAPORE 821267
822267,1.404432739,103.8979324,PUNGGOL SAPPHIRE,267B,PUNGGOL FIELD,PUNGGOL SAPPHIRE,267B PUNGGOL FIELD PUNGGOL SAPPHIRE SINGAPORE 822267
823267,1.404290802,103.8983193,PUNGGOL SAPPHIRE,267C,PUNGGOL FIELD,PUNGGOL SAPPHIRE,267C PUNGGOL FIELD PUNGGOL SAPPHIRE SINGAPORE 823267
821268,1.404111506,103.8973989,PUNGGOL SAPPHIRE,268A,PUNGGOL FIELD,PUNGGOL SAPPHIRE,268A PUNGGOL FIELD PUNGGOL SAPPHIRE SINGAPORE 821268
822268,1.403782416,103.8973001,PUNGGOL SAPPHIRE,268B,PUNGGOL FIELD,PUNGGOL SAPPHIRE,268B PUNGGOL FIELD PUNGGOL SAPPHIRE SINGAPORE 822268
823268,1.403474149,103.8979384,PUNGGOL SAPPHIRE,268C,PUNGGOL FIELD,PUNGGOL SAPPHIRE,268C PUNGGOL FIELD PUNGGOL SAPPHIRE SINGAPORE 823268
824268,1.403313781,103.8983589,PUNGGOL SAPPHIRE,268D,PUNGGOL FIELD,PUNGGOL SAPPHIRE,268D PUNGGOL FIELD PUNGGOL SAPPHIRE SINGAPORE 824268
821269,1.403149047,103.8989758,PUNGGOL SAPPHIRE,269A,PUNGGOL FIELD,PUNGGOL SAPPHIRE,269A PUNGGOL FIELD PUNGGOL SAPPHIRE SINGAPORE 821269
822269,1.403443932,103.8986665,PUNGGOL SAPPHIRE,269B,PUNGGOL FIELD,PUNGGOL SAPPHIRE,269B PUNGGOL FIELD PUNGGOL SAPPHIRE SINGAPORE 822269
823269,1.403652033,103.8985316,PUNGGOL SAPPHIRE,269C,PUNGGOL FIELD,PUNGGOL SAPPHIRE,269C PUNGGOL FIELD PUNGGOL SAPPHIRE SINGAPORE 823269
821270,1.403979501,103.8994549,PUNGGOL SAPPHIRE,270A,PUNGGOL FIELD,PUNGGOL SAPPHIRE,270A PUNGGOL FIELD PUNGGOL SAPPHIRE SINGAPORE 821270
822270,1.404108025,103.8990319,PUNGGOL SAPPHIRE,270B,PUNGGOL FIELD,PUNGGOL SAPPHIRE,270B PUNGGOL FIELD PUNGGOL SAPPHIRE SINGAPORE 822270
823270,1.404315452,103.8988518,PUNGGOL SAPPHIRE,270C,PUNGGOL FIELD,PUNGGOL SAPPHIRE,270C PUNGGOL FIELD PUNGGOL SAPPHIRE SINGAPORE 823270
821271,1.403745404,103.9003189,PUNGGOL RESIDENCES,271A,PUNGGOL WALK,PUNGGOL RESIDENCES,271A PUNGGOL WALK PUNGGOL RESIDENCES SINGAPORE 821271
822271,1.40417055,103.9005811,PUNGGOL RESIDENCES,271B,PUNGGOL WALK,PUNGGOL RESIDENCES,271B PUNGGOL WALK PUNGGOL RESIDENCES SINGAPORE 822271
823271,1.403941659,103.9010343,PUNGGOL RESIDENCES,271C,PUNGGOL WALK,PUNGGOL RESIDENCES,271C PUNGGOL WALK PUNGGOL RESIDENCES SINGAPORE 823271
824271,1.403514326,103.9008903,PUNGGOL RESIDENCES,271D,PUNGGOL WALK,PUNGGOL RESIDENCES,271D PUNGGOL WALK PUNGGOL RESIDENCES SINGAPORE 824271
821272,1.403145259,103.900666,PUNGGOL RESIDENCES,272A,PUNGGOL WALK,PUNGGOL RESIDENCES,272A PUNGGOL WALK PUNGGOL RESIDENCES SINGAPORE 821272
822272,1.403295668,103.9002354,PUNGGOL RESIDENCES,272B,PUNGGOL WALK,PUNGGOL RESIDENCES,272B PUNGGOL WALK PUNGGOL RESIDENCES SINGAPORE 822272
823272,1.402857065,103.9000672,PUNGGOL RESIDENCES,272C,PUNGGOL WALK,PUNGGOL RESIDENCES,272C PUNGGOL WALK PUNGGOL RESIDENCES SINGAPORE 823272
824272,1.402733475,103.9004635,PUNGGOL RESIDENCES,272D,PUNGGOL WALK,PUNGGOL RESIDENCES,272D PUNGGOL WALK PUNGGOL RESIDENCES SINGAPORE 824272
821273,1.402284312,103.9021043,PUNGGOL REGALIA,273A,PUNGGOL PLACE,PUNGGOL REGALIA,273A PUNGGOL PLACE PUNGGOL REGALIA SINGAPORE 821273
822273,1.401960108,103.9017788,PUNGGOL REGALIA,273B,PUNGGOL PLACE,PUNGGOL REGALIA,273B PUNGGOL PLACE PUNGGOL REGALIA SINGAPORE 822273
823273,1.402303014,103.9012624,PUNGGOL REGALIA,273C,PUNGGOL PLACE,PUNGGOL REGALIA,273C PUNGGOL PLACE PUNGGOL REGALIA SINGAPORE 823273
824273,1.402523182,103.9012959,PUNGGOL REGALIA,273D,PUNGGOL PLACE,PUNGGOL REGALIA,273D PUNGGOL PLACE PUNGGOL REGALIA SINGAPORE 824273
821274,1.402736207,103.9023521,PUNGGOL REGALIA,274A,PUNGGOL PLACE,PUNGGOL REGALIA,274A PUNGGOL PLACE PUNGGOL REGALIA SINGAPORE 821274
822274,1.403116263,103.9022874,PUNGGOL REGALIA,274B,PUNGGOL PLACE,PUNGGOL REGALIA,274B PUNGGOL PLACE PUNGGOL REGALIA SINGAPORE 822274
823274,1.403258431,103.9020087,PUNGGOL REGALIA,274C,PUNGGOL PLACE,PUNGGOL REGALIA,274C PUNGGOL PLACE PUNGGOL REGALIA SINGAPORE 823274
824274,1.403033709,103.9016885,PUNGGOL REGALIA,274D,PUNGGOL PLACE,PUNGGOL REGALIA,274D PUNGGOL PLACE PUNGGOL REGALIA SINGAPORE 824274
821288,1.402377994,103.9030395,PUNGGOL ARCADIA,288A,PUNGGOL PLACE,PUNGGOL ARCADIA,288A PUNGGOL PLACE PUNGGOL ARCADIA SINGAPORE 821288
822288,1.402675272,103.9032975,PUNGGOL ARCADIA,288B,PUNGGOL PLACE,PUNGGOL ARCADIA,288B PUNGGOL PLACE PUNGGOL ARCADIA SINGAPORE 822288
823288,1.402550903,103.9035571,PUNGGOL ARCADIA,288C,PUNGGOL PLACE,PUNGGOL ARCADIA,288C PUNGGOL PLACE PUNGGOL ARCADIA SINGAPORE 823288
821289,1.40157247,103.9026191,PUNGGOL ARCADIA,289A,PUNGGOL PLACE,PUNGGOL ARCADIA,289A PUNGGOL PLACE PUNGGOL ARCADIA SINGAPORE 821289
822289,1.401343561,103.903127,PUNGGOL ARCADIA,289B,PUNGGOL PLACE,PUNGGOL ARCADIA,289B PUNGGOL PLACE PUNGGOL ARCADIA SINGAPORE 822289
823289,1.401549241,103.9035195,PUNGGOL ARCADIA,289C,PUNGGOL PLACE,PUNGGOL ARCADIA,289C PUNGGOL PLACE PUNGGOL ARCADIA SINGAPORE 823289
824289,1.402039057,103.9035327,PUNGGOL ARCADIA,289D,PUNGGOL PLACE,PUNGGOL ARCADIA,289D PUNGGOL PLACE PUNGGOL ARCADIA SINGAPORE 824289
820293,1.403075573,103.9049453,PUNGGOL GROVE,293,PUNGGOL CENTRAL,PUNGGOL GROVE,293 PUNGGOL CENTRAL PUNGGOL GROVE SINGAPORE 820293
820294,1.402571817,103.9046355,PUNGGOL GROVE,294,PUNGGOL CENTRAL,PUNGGOL GROVE,294 PUNGGOL CENTRAL PUNGGOL GROVE SINGAPORE 820294
820295,1.401886208,103.9049173,PUNGGOL GROVE,295,PUNGGOL CENTRAL,PUNGGOL GROVE,295 PUNGGOL CENTRAL PUNGGOL GROVE SINGAPORE 820295
820296,1.401588191,103.9052652,PUNGGOL GROVE,296,PUNGGOL CENTRAL,PUNGGOL GROVE,296 PUNGGOL CENTRAL PUNGGOL GROVE SINGAPORE 820296
820297,1.402191213,103.9054519,PUNGGOL GROVE,297,PUNGGOL CENTRAL,PUNGGOL GROVE,297 PUNGGOL CENTRAL PUNGGOL GROVE SINGAPORE 820297
820298,1.402617228,103.9056027,PUNGGOL GROVE,298,PUNGGOL CENTRAL,PUNGGOL GROVE,298 PUNGGOL CENTRAL PUNGGOL GROVE SINGAPORE 820298
820299,1.402706152,103.9053082,PUNGGOL GROVE,299,PUNGGOL CENTRAL,PUNGGOL GROVE,299 PUNGGOL CENTRAL PUNGGOL GROVE SINGAPORE 820299
821301,1.404172163,103.9061861,CORALINUS,301A,PUNGGOL CENTRAL,CORALINUS,301A PUNGGOL CENTRAL CORALINUS SINGAPORE 821301
822301,1.404265418,103.9058947,CORALINUS,301B,PUNGGOL CENTRAL,CORALINUS,301B PUNGGOL CENTRAL CORALINUS SINGAPORE 822301
823301,1.404401623,103.9056638,CORALINUS,301C,PUNGGOL CENTRAL,CORALINUS,301C PUNGGOL CENTRAL CORALINUS SINGAPORE 823301
824301,1.404448148,103.9054296,CORALINUS,301D,PUNGGOL PLACE,CORALINUS,301D PUNGGOL PLACE CORALINUS SINGAPORE 824301
821302,1.404423566,103.9044442,CORALINUS,302A,PUNGGOL PLACE,CORALINUS,302A PUNGGOL PLACE CORALINUS SINGAPORE 821302
822302,1.404374931,103.904784,CORALINUS,302B,PUNGGOL PLACE,CORALINUS,302B PUNGGOL PLACE CORALINUS SINGAPORE 822302
823302,1.404720474,103.9049679,CORALINUS,302C,PUNGGOL PLACE,CORALINUS,302C PUNGGOL PLACE CORALINUS SINGAPORE 823302
824302,1.404584297,103.9051987,CORALINUS,302D,PUNGGOL PLACE,CORALINUS,302D PUNGGOL PLACE CORALINUS SINGAPORE 824302
821303,1.403777894,103.9057622,CORALINUS,303A,PUNGGOL CENTRAL,CORALINUS,303A PUNGGOL CENTRAL CORALINUS SINGAPORE 821303
824303,1.404238647,103.905015,CORALINUS,303D,PUNGGOL PLACE,CORALINUS,303D PUNGGOL PLACE CORALINUS SINGAPORE 824303
821305,1.405079118,103.906706,TREELODGE@PUNGGOL,305A,PUNGGOL ROAD,TREELODGE@PUNGGOL,305A PUNGGOL ROAD TREELODGE@PUNGGOL SINGAPORE 821305
822305,1.405351919,103.9062507,TREELODGE@PUNGGOL,305B,PUNGGOL ROAD,TREELODGE@PUNGGOL,305B PUNGGOL ROAD TREELODGE@PUNGGOL SINGAPORE 822305
824305,1.405832084,103.906791,TREELODGE@PUNGGOL,305D,PUNGGOL DRIVE,TREELODGE@PUNGGOL,305D PUNGGOL DRIVE TREELODGE@PUNGGOL SINGAPORE 824305
821306,1.406092596,103.9053953,TREELODGE@PUNGGOL,306A,PUNGGOL PLACE,TREELODGE@PUNGGOL,306A PUNGGOL PLACE TREELODGE@PUNGGOL SINGAPORE 821306
822306,1.405792305,103.9057772,TREELODGE@PUNGGOL,306B,PUNGGOL PLACE,TREELODGE@PUNGGOL,306B PUNGGOL PLACE TREELODGE@PUNGGOL SINGAPORE 822306
823306,1.406403852,103.9059582,TREELODGE@PUNGGOL,306C,PUNGGOL PLACE,TREELODGE@PUNGGOL,306C PUNGGOL PLACE TREELODGE@PUNGGOL SINGAPORE 823306
824306,1.406081435,103.9064384,TREELODGE@PUNGGOL,306D,PUNGGOL DRIVE,TREELODGE@PUNGGOL,306D PUNGGOL DRIVE TREELODGE@PUNGGOL SINGAPORE 824306
821308,1.407754256,103.9009062,WATERWAY TERRACES I,308A,PUNGGOL WALK,WATERWAY TERRACES I,308A PUNGGOL WALK WATERWAY TERRACES I SINGAPORE 821308
822308,1.407766768,103.8995809,WATERWAY TERRACES I,308B,PUNGGOL WALK,WATERWAY TERRACES I,308B PUNGGOL WALK WATERWAY TERRACES I SINGAPORE 822308
823308,1.408006949,103.8990744,WATERWAY TERRACES I,308C,PUNGGOL WALK,WATERWAY TERRACES I,308C PUNGGOL WALK WATERWAY TERRACES I SINGAPORE 823308
821310,1.408700889,103.9013266,WATERWAY TERRACES II,310A,PUNGGOL WALK,WATERWAY TERRACES II,310A PUNGGOL WALK WATERWAY TERRACES II SINGAPORE 821310
822310,1.409322675,103.9008018,WATERWAY TERRACES II,310B,PUNGGOL WALK,WATERWAY TERRACES II,310B PUNGGOL WALK WATERWAY TERRACES II SINGAPORE 822310
823310,1.409710961,103.8998984,WATERWAY TERRACES II,310C,PUNGGOL WALK,WATERWAY TERRACES II,310C PUNGGOL WALK WATERWAY TERRACES II SINGAPORE 823310
821312,1.410819269,103.9003717,PUNGGOL PARCVISTA,312A,SUMANG LINK,PUNGGOL PARCVISTA,312A SUMANG LINK PUNGGOL PARCVISTA SINGAPORE 821312
822312,1.411353096,103.9006147,PUNGGOL PARCVISTA,312B,SUMANG LINK,PUNGGOL PARCVISTA,312B SUMANG LINK PUNGGOL PARCVISTA SINGAPORE 822312
823312,1.410907282,103.9011861,PUNGGOL PARCVISTA,312C,SUMANG LINK,PUNGGOL PARCVISTA,312C SUMANG LINK PUNGGOL PARCVISTA SINGAPORE 823312
821313,1.409851841,103.9019953,PUNGGOL PARCVISTA,313A,SUMANG LINK,PUNGGOL PARCVISTA,313A SUMANG LINK PUNGGOL PARCVISTA SINGAPORE 821313
822313,1.410239547,103.9021436,PUNGGOL PARCVISTA,313B,SUMANG LINK,PUNGGOL PARCVISTA,313B SUMANG LINK PUNGGOL PARCVISTA SINGAPORE 822313
823313,1.410628851,103.9015519,PUNGGOL PARCVISTA,313C,SUMANG LINK,PUNGGOL PARCVISTA,313C SUMANG LINK PUNGGOL PARCVISTA SINGAPORE 823313
821314,1.408261878,103.8980179,WATERWAY CASCADIA,314A,PUNGGOL WAY,WATERWAY CASCADIA,314A PUNGGOL WAY WATERWAY CASCADIA SINGAPORE 821314
822314,1.407897787,103.8973708,WATERWAY CASCADIA,314B,PUNGGOL WAY,WATERWAY CASCADIA,314B PUNGGOL WAY WATERWAY CASCADIA SINGAPORE 822314
821315,1.408316774,103.897053,WATERWAY CASCADIA,315A,PUNGGOL WAY,WATERWAY CASCADIA,315A PUNGGOL WAY WATERWAY CASCADIA SINGAPORE 821315
822315,1.407956027,103.8964008,WATERWAY CASCADIA,315B,PUNGGOL WAY,WATERWAY CASCADIA,315B PUNGGOL WAY WATERWAY CASCADIA SINGAPORE 822315
821316,1.408901659,103.8984078,WATERWAY CASCADIA,316A,PUNGGOL WAY,WATERWAY CASCADIA,316A PUNGGOL WAY WATERWAY CASCADIA SINGAPORE 821316
822316,1.408946658,103.8979255,WATERWAY CASCADIA,316B,PUNGGOL WAY,WATERWAY CASCADIA,316B PUNGGOL WAY WATERWAY CASCADIA SINGAPORE 822316
824316,1.408793114,103.8968121,WATERWAY CASCADIA,316D,PUNGGOL WAY,WATERWAY CASCADIA,316D PUNGGOL WAY WATERWAY CASCADIA SINGAPORE 824316
821322,1.411394471,103.8970324,PUNGGOL BAYVIEW,322A,SUMANG WALK,PUNGGOL BAYVIEW,322A SUMANG WALK PUNGGOL BAYVIEW SINGAPORE 821322
822322,1.410915886,103.8968867,PUNGGOL BAYVIEW,322B,SUMANG WALK,PUNGGOL BAYVIEW,322B SUMANG WALK PUNGGOL BAYVIEW SINGAPORE 822322
823322,1.410519051,103.8965814,PUNGGOL BAYVIEW,322C,SUMANG WALK,PUNGGOL BAYVIEW,322C SUMANG WALK PUNGGOL BAYVIEW SINGAPORE 823322
824322,1.410036287,103.8963802,PUNGGOL BAYVIEW,322D,SUMANG WALK,PUNGGOL BAYVIEW,322D SUMANG WALK PUNGGOL BAYVIEW SINGAPORE 824322
823323,1.412666703,103.8976014,PUNGGOL BAYVIEW,323C,SUMANG WALK,PUNGGOL BAYVIEW,323C SUMANG WALK PUNGGOL BAYVIEW SINGAPORE 823323
824323,1.412188117,103.8974557,PUNGGOL BAYVIEW,323D,SUMANG WALK,PUNGGOL BAYVIEW,323D SUMANG WALK PUNGGOL BAYVIEW SINGAPORE 824323
821325,1.413596604,103.8981213,PUNGGOL BAYVIEW,325A,SUMANG WALK,PUNGGOL BAYVIEW,325A SUMANG WALK PUNGGOL BAYVIEW SINGAPORE 821325
822325,1.413121366,103.8979273,PUNGGOL BAYVIEW,325B,SUMANG WALK,PUNGGOL BAYVIEW,325B SUMANG WALK PUNGGOL BAYVIEW SINGAPORE 822325
821326,1.412992901,103.8993268,PUNGGOL VUE,326A,SUMANG WALK,PUNGGOL VUE,326A SUMANG WALK PUNGGOL VUE SINGAPORE 821326
822326,1.41260504,103.8997332,PUNGGOL VUE,326B,SUMANG WALK,PUNGGOL VUE,326B SUMANG WALK PUNGGOL VUE SINGAPORE 822326
823326,1.412404594,103.9001778,PUNGGOL VUE,326C,SUMANG WALK,PUNGGOL VUE,326C SUMANG WALK PUNGGOL VUE SINGAPORE 823326
821327,1.412436132,103.8991336,PUNGGOL VUE,327A,SUMANG WALK,PUNGGOL VUE,327A SUMANG WALK PUNGGOL VUE SINGAPORE 821327
822327,1.412255691,103.8995758,PUNGGOL VUE,327B,SUMANG WALK,PUNGGOL VUE,327B SUMANG WALK PUNGGOL VUE SINGAPORE 822327
823327,1.412069303,103.8999743,PUNGGOL VUE,327C,SUMANG WALK,PUNGGOL VUE,327C SUMANG WALK PUNGGOL VUE SINGAPORE 823327
821601,1.402468466,103.9075822,PUNGGOL VISTA,601A,PUNGGOL CENTRAL,PUNGGOL VISTA,601A PUNGGOL CENTRAL PUNGGOL VISTA SINGAPORE 821601
822601,1.402147022,103.9078319,PUNGGOL VISTA,601B,PUNGGOL CENTRAL,PUNGGOL VISTA,601B PUNGGOL CENTRAL PUNGGOL VISTA SINGAPORE 822601
823601,1.40267897,103.9081061,PUNGGOL VISTA,601C,PUNGGOL CENTRAL,PUNGGOL VISTA,601C PUNGGOL CENTRAL PUNGGOL VISTA SINGAPORE 823601
824601,1.402964008,103.9078474,PUNGGOL VISTA,601D,PUNGGOL CENTRAL,PUNGGOL VISTA,601D PUNGGOL CENTRAL PUNGGOL VISTA SINGAPORE 824601
821602,1.403480538,103.9071174,PUNGGOL VISTA,602A,PUNGGOL CENTRAL,PUNGGOL VISTA,602A PUNGGOL CENTRAL PUNGGOL VISTA SINGAPORE 821602
822602,1.403012767,103.9068635,PUNGGOL VISTA,602B,PUNGGOL CENTRAL,PUNGGOL VISTA,602B PUNGGOL CENTRAL PUNGGOL VISTA SINGAPORE 822602
823602,1.402713299,103.9072462,PUNGGOL VISTA,602C,PUNGGOL CENTRAL,PUNGGOL VISTA,602C PUNGGOL CENTRAL PUNGGOL VISTA SINGAPORE 823602
821603,1.403530127,103.9084634,PUNGGOL LODGE,603A,PUNGGOL ROAD,PUNGGOL LODGE,603A PUNGGOL ROAD PUNGGOL LODGE SINGAPORE 821603
822603,1.40314294,103.9083163,PUNGGOL LODGE,603B,PUNGGOL ROAD,PUNGGOL LODGE,603B PUNGGOL ROAD PUNGGOL LODGE SINGAPORE 822603
821604,1.404309717,103.9074126,PUNGGOL LODGE,604A,PUNGGOL ROAD,PUNGGOL LODGE,604A PUNGGOL ROAD PUNGGOL LODGE SINGAPORE 821604
822604,1.403889296,103.9072069,PUNGGOL LODGE,604B,PUNGGOL ROAD,PUNGGOL LODGE,604B PUNGGOL ROAD PUNGGOL LODGE SINGAPORE 822604
823604,1.403665376,103.9075323,PUNGGOL LODGE,604C,PUNGGOL ROAD,PUNGGOL LODGE,604C PUNGGOL ROAD PUNGGOL LODGE SINGAPORE 823604
821612,1.404164316,103.9091177,DAMAI GROVE,612A,PUNGGOL DRIVE,DAMAI GROVE,612A PUNGGOL DRIVE DAMAI GROVE SINGAPORE 821612
822612,1.404938584,103.9081572,DAMAI GROVE,612B,PUNGGOL DRIVE,DAMAI GROVE,612B PUNGGOL DRIVE DAMAI GROVE SINGAPORE 822612
823612,1.405077716,103.9077599,DAMAI GROVE,612C,PUNGGOL DRIVE,DAMAI GROVE,612C PUNGGOL DRIVE DAMAI GROVE SINGAPORE 823612
824612,1.404726526,103.9076236,DAMAI GROVE,612D,PUNGGOL DRIVE,DAMAI GROVE,612D PUNGGOL DRIVE DAMAI GROVE SINGAPORE 824612
821613,1.40442052,103.907861,DAMAI GROVE,613A,PUNGGOL DRIVE,DAMAI GROVE,613A PUNGGOL DRIVE DAMAI GROVE SINGAPORE 821613
822613,1.404277103,103.9082778,DAMAI GROVE,613B,PUNGGOL DRIVE,DAMAI GROVE,613B PUNGGOL DRIVE DAMAI GROVE SINGAPORE 822613
823613,1.403983217,103.9086639,DAMAI GROVE,613C,PUNGGOL DRIVE,DAMAI GROVE,613C PUNGGOL DRIVE DAMAI GROVE SINGAPORE 823613
824613,1.403824351,103.9089093,DAMAI GROVE,613D,PUNGGOL DRIVE,DAMAI GROVE,613D PUNGGOL DRIVE DAMAI GROVE SINGAPORE 824613
821614,1.403584212,103.9092641,PUNGGOL SPRING,614A,EDGEFIELD PLAINS,PUNGGOL SPRING,614A EDGEFIELD PLAINS PUNGGOL SPRING SINGAPORE 821614
822614,1.402903237,103.9100575,PUNGGOL SPRING,614B,EDGEFIELD PLAINS,PUNGGOL SPRING,614B EDGEFIELD PLAINS PUNGGOL SPRING SINGAPORE 822614
821615,1.403860564,103.909541,PUNGGOL SPRING,615A,EDGEFIELD PLAINS,PUNGGOL SPRING,615A EDGEFIELD PLAINS PUNGGOL SPRING SINGAPORE 821615
822615,1.403745882,103.9098829,PUNGGOL SPRING,615B,EDGEFIELD PLAINS,PUNGGOL SPRING,615B EDGEFIELD PLAINS PUNGGOL SPRING SINGAPORE 822615
823615,1.403558837,103.9101535,PUNGGOL SPRING,615C,EDGEFIELD PLAINS,PUNGGOL SPRING,615C EDGEFIELD PLAINS PUNGGOL SPRING SINGAPORE 823615
821617,1.402329257,103.9118114,PUNGGOL BREEZE,617A,PUNGGOL DRIVE,PUNGGOL BREEZE,617A PUNGGOL DRIVE PUNGGOL BREEZE SINGAPORE 821617
822617,1.40215673,103.9121478,PUNGGOL BREEZE,617B,PUNGGOL DRIVE,PUNGGOL BREEZE,617B PUNGGOL DRIVE PUNGGOL BREEZE SINGAPORE 822617
823617,1.40194562,103.9124567,PUNGGOL BREEZE,617C,PUNGGOL DRIVE,PUNGGOL BREEZE,617C PUNGGOL DRIVE PUNGGOL BREEZE SINGAPORE 823617
824617,1.401614289,103.912808,PUNGGOL BREEZE,617D,PUNGGOL DRIVE,PUNGGOL BREEZE,617D PUNGGOL DRIVE PUNGGOL BREEZE SINGAPORE 824617
821618,1.401126351,103.9124627,PUNGGOL BREEZE,618A,PUNGGOL DRIVE,PUNGGOL BREEZE,618A PUNGGOL DRIVE PUNGGOL BREEZE SINGAPORE 821618
822618,1.40146582,103.912122,PUNGGOL BREEZE,618B,PUNGGOL DRIVE,PUNGGOL BREEZE,618B PUNGGOL DRIVE PUNGGOL BREEZE SINGAPORE 822618
823618,1.401686288,103.9118158,PUNGGOL BREEZE,618C,PUNGGOL DRIVE,PUNGGOL BREEZE,618C PUNGGOL DRIVE PUNGGOL BREEZE SINGAPORE 823618
824618,1.401841319,103.9114662,PUNGGOL BREEZE,618D,PUNGGOL DRIVE,PUNGGOL BREEZE,618D PUNGGOL DRIVE PUNGGOL BREEZE SINGAPORE 824618
821619,1.402605242,103.9114267,PUNGGOL BREEZE,619A,PUNGGOL DRIVE,PUNGGOL BREEZE,619A PUNGGOL DRIVE PUNGGOL BREEZE SINGAPORE 821619
822619,1.402881227,103.911042,PUNGGOL BREEZE,619B,PUNGGOL DRIVE,PUNGGOL BREEZE,619B PUNGGOL DRIVE PUNGGOL BREEZE SINGAPORE 822619
823619,1.402393288,103.9106968,PUNGGOL BREEZE,619C,PUNGGOL DRIVE,PUNGGOL BREEZE,619C PUNGGOL DRIVE PUNGGOL BREEZE SINGAPORE 823619
824619,1.402117304,103.9110815,PUNGGOL BREEZE,619D,PUNGGOL DRIVE,PUNGGOL BREEZE,619D PUNGGOL DRIVE PUNGGOL BREEZE SINGAPORE 824619
821621,1.401045849,103.9098906,621A EDGEFIELD WALK SINGAPORE 821621,621A,EDGEFIELD WALK,NIL,621A EDGEFIELD WALK SINGAPORE 821621
821622,1.399927801,103.9110469,PUNGGOL SPECTRA,622A,PUNGGOL CENTRAL,PUNGGOL SPECTRA,622A PUNGGOL CENTRAL PUNGGOL SPECTRA SINGAPORE 821622
822622,1.400343698,103.9105412,PUNGGOL SPECTRA,622B,PUNGGOL CENTRAL,PUNGGOL SPECTRA,622B PUNGGOL CENTRAL PUNGGOL SPECTRA SINGAPORE 822622
823622,1.400668946,103.9109494,PUNGGOL SPECTRA,622C,PUNGGOL CENTRAL,PUNGGOL SPECTRA,622C PUNGGOL CENTRAL PUNGGOL SPECTRA SINGAPORE 823622
821623,1.399884825,103.9118964,PUNGGOL SPECTRA,623A,PUNGGOL CENTRAL,PUNGGOL SPECTRA,623A PUNGGOL CENTRAL PUNGGOL SPECTRA SINGAPORE 821623
822623,1.399359355,103.9118367,PUNGGOL SPECTRA,623B,PUNGGOL CENTRAL,PUNGGOL SPECTRA,623B PUNGGOL CENTRAL PUNGGOL SPECTRA SINGAPORE 822623
823623,1.399632865,103.9114585,PUNGGOL SPECTRA,623C,PUNGGOL CENTRAL,PUNGGOL SPECTRA,623C PUNGGOL CENTRAL PUNGGOL SPECTRA SINGAPORE 823623
821624,1.400862412,103.9113687,PUNGGOL SPECTRA,624A,PUNGGOL CENTRAL,PUNGGOL SPECTRA,624A PUNGGOL CENTRAL PUNGGOL SPECTRA SINGAPORE 821624
822624,1.400739588,103.9117175,PUNGGOL SPECTRA,624B,PUNGGOL CENTRAL,PUNGGOL SPECTRA,624B PUNGGOL CENTRAL PUNGGOL SPECTRA SINGAPORE 822624
823624,1.400491448,103.911983,PUNGGOL SPECTRA,624C,PUNGGOL CENTRAL,PUNGGOL SPECTRA,624C PUNGGOL CENTRAL PUNGGOL SPECTRA SINGAPORE 823624
821632,1.400695478,103.91334,EDGEDALE GREEN,632A,PUNGGOL DRIVE,EDGEDALE GREEN,632A PUNGGOL DRIVE EDGEDALE GREEN SINGAPORE 821632
822632,1.400843273,103.9131347,EDGEDALE GREEN,632B,PUNGGOL DRIVE,EDGEDALE GREEN,632B PUNGGOL DRIVE EDGEDALE GREEN SINGAPORE 822632
823632,1.400990117,103.9129282,EDGEDALE GREEN,632C,PUNGGOL DRIVE,EDGEDALE GREEN,632C PUNGGOL DRIVE EDGEDALE GREEN SINGAPORE 823632
821633,1.401369675,103.9131916,EDGEDALE GREEN,633A,PUNGGOL DRIVE,EDGEDALE GREEN,633A PUNGGOL DRIVE EDGEDALE GREEN SINGAPORE 821633
821635,1.400949108,103.9137774,EDGEDALE GREEN,635A,PUNGGOL DRIVE,EDGEDALE GREEN,635A PUNGGOL DRIVE EDGEDALE GREEN SINGAPORE 821635
822635,1.400799944,103.9139809,EDGEDALE GREEN,635B,PUNGGOL DRIVE,EDGEDALE GREEN,635B PUNGGOL DRIVE EDGEDALE GREEN SINGAPORE 822635
823635,1.400654324,103.9141867,EDGEDALE GREEN,635C,PUNGGOL DRIVE,EDGEDALE GREEN,635C PUNGGOL DRIVE EDGEDALE GREEN SINGAPORE 823635
821636,1.400254213,103.9139538,EDGEDALE GREEN,636A,PUNGGOL DRIVE,EDGEDALE GREEN,636A PUNGGOL DRIVE EDGEDALE GREEN SINGAPORE 821636
822636,1.400407926,103.9137505,EDGEDALE GREEN,636B,PUNGGOL DRIVE,EDGEDALE GREEN,636B PUNGGOL DRIVE EDGEDALE GREEN SINGAPORE 822636
821637,1.399693672,103.914597,THE MEADOWS,637A,PUNGGOL DRIVE,THE MEADOWS,637A PUNGGOL DRIVE THE MEADOWS SINGAPORE 821637
822637,1.39949597,103.9149545,THE MEADOWS,637B,PUNGGOL DRIVE,THE MEADOWS,637B PUNGGOL DRIVE THE MEADOWS SINGAPORE 822637
823637,1.399179807,103.9150066,THE MEADOWS,637C,PUNGGOL DRIVE,THE MEADOWS,637C PUNGGOL DRIVE THE MEADOWS SINGAPORE 823637
824637,1.399057628,103.9154647,THE MEADOWS,637D,PUNGGOL DRIVE,THE MEADOWS,637D PUNGGOL DRIVE THE MEADOWS SINGAPORE 824637
821638,1.400123957,103.9148717,THE MEADOWS,638A,PUNGGOL DRIVE,THE MEADOWS,638A PUNGGOL DRIVE THE MEADOWS SINGAPORE 821638
822638,1.399824434,103.915139,THE MEADOWS,638B,PUNGGOL DRIVE,THE MEADOWS,638B PUNGGOL DRIVE THE MEADOWS SINGAPORE 822638
823638,1.399676335,103.9153916,THE MEADOWS,638C,PUNGGOL DRIVE,THE MEADOWS,638C PUNGGOL DRIVE THE MEADOWS SINGAPORE 823638
821641,1.398554823,103.9170016,THE MEADOWS,641A,PUNGGOL DRIVE,THE MEADOWS,641A PUNGGOL DRIVE THE MEADOWS SINGAPORE 821641
822641,1.398792102,103.9166252,THE MEADOWS,641B,PUNGGOL DRIVE,THE MEADOWS,641B PUNGGOL DRIVE THE MEADOWS SINGAPORE 822641
823641,1.398940204,103.9163726,THE MEADOWS,641C,PUNGGOL DRIVE,THE MEADOWS,641C PUNGGOL DRIVE THE MEADOWS SINGAPORE 823641
821642,1.398162762,103.9167142,THE MEADOWS,642A,PUNGGOL DRIVE,THE MEADOWS,642A PUNGGOL DRIVE THE MEADOWS SINGAPORE 821642
822642,1.398284533,103.9162553,THE MEADOWS,642B,PUNGGOL DRIVE,THE MEADOWS,642B PUNGGOL DRIVE THE MEADOWS SINGAPORE 822642
823642,1.398600697,103.9162033,THE MEADOWS,642C,PUNGGOL DRIVE,THE MEADOWS,642C PUNGGOL DRIVE THE MEADOWS SINGAPORE 823642
824642,1.39879751,103.9158457,THE MEADOWS,642D,PUNGGOL DRIVE,THE MEADOWS,642D PUNGGOL DRIVE THE MEADOWS SINGAPORE 824642
820643,1.39731946,103.9160186,EASTDALE,643,PUNGGOL CENTRAL,EASTDALE,643 PUNGGOL CENTRAL EASTDALE SINGAPORE 820643
820645,1.39777617,103.9162774,EASTDALE,645,PUNGGOL CENTRAL,EASTDALE,645 PUNGGOL CENTRAL EASTDALE SINGAPORE 820645
820646,1.398148805,103.9157809,EASTDALE,646,PUNGGOL CENTRAL,EASTDALE,646 PUNGGOL CENTRAL EASTDALE SINGAPORE 820646
820647,1.398063071,103.9154533,EASTDALE,647,PUNGGOL CENTRAL,EASTDALE,647 PUNGGOL CENTRAL EASTDALE SINGAPORE 820647
820648,1.397692398,103.915172,EASTDALE,648,PUNGGOL CENTRAL,EASTDALE,648 PUNGGOL CENTRAL EASTDALE SINGAPORE 820648
820649,1.397238237,103.9149154,EASTDALE,649,PUNGGOL CENTRAL,EASTDALE,649 PUNGGOL CENTRAL EASTDALE SINGAPORE 820649
820651,1.396866833,103.9154104,EASTDALE,651,PUNGGOL CENTRAL,EASTDALE,651 PUNGGOL CENTRAL EASTDALE SINGAPORE 820651
820652,1.396953111,103.9157376,EASTDALE,652,PUNGGOL CENTRAL,EASTDALE,652 PUNGGOL CENTRAL EASTDALE SINGAPORE 820652
821658,1.400175685,103.9197201,WATERWAY SUNRAY,658A,PUNGGOL EAST,WATERWAY SUNRAY,658A PUNGGOL EAST WATERWAY SUNRAY SINGAPORE 821658
822658,1.400212828,103.9190528,WATERWAY SUNRAY,658B,PUNGGOL EAST,WATERWAY SUNRAY,658B PUNGGOL EAST WATERWAY SUNRAY SINGAPORE 822658
823658,1.400549817,103.9186502,WATERWAY SUNRAY,658C,PUNGGOL EAST,WATERWAY SUNRAY,658C PUNGGOL EAST WATERWAY SUNRAY SINGAPORE 823658
821659,1.400527833,103.9197574,WATERWAY SUNRAY,659A,PUNGGOL EAST,WATERWAY SUNRAY,659A PUNGGOL EAST WATERWAY SUNRAY SINGAPORE 821659
822659,1.400746549,103.9191493,WATERWAY SUNRAY,659B,PUNGGOL EAST,WATERWAY SUNRAY,659B PUNGGOL EAST WATERWAY SUNRAY SINGAPORE 822659
823659,1.401225385,103.9191307,WATERWAY SUNRAY,659C,PUNGGOL EAST,WATERWAY SUNRAY,659C PUNGGOL EAST WATERWAY SUNRAY SINGAPORE 823659
821661,1.403030566,103.9170807,WATERWAY SUNDEW,661A,EDGEDALE PLAINS,WATERWAY SUNDEW,661A EDGEDALE PLAINS WATERWAY SUNDEW SINGAPORE 821661
822661,1.402485648,103.9167514,WATERWAY SUNDEW,661B,EDGEDALE PLAINS,WATERWAY SUNDEW,661B EDGEDALE PLAINS WATERWAY SUNDEW SINGAPORE 822661
823661,1.402071587,103.91748,WATERWAY SUNDEW,661C,EDGEDALE PLAINS,WATERWAY SUNDEW,661C EDGEDALE PLAINS WATERWAY SUNDEW SINGAPORE 823661
821662,1.402004486,103.9183264,WATERWAY SUNDEW,662A,EDGEDALE PLAINS,WATERWAY SUNDEW,662A EDGEDALE PLAINS WATERWAY SUNDEW SINGAPORE 821662
822662,1.401721537,103.918691,WATERWAY SUNDEW,662B,EDGEDALE PLAINS,WATERWAY SUNDEW,662B EDGEDALE PLAINS WATERWAY SUNDEW SINGAPORE 822662
823662,1.401391816,103.9185139,WATERWAY SUNDEW,662C,EDGEDALE PLAINS,WATERWAY SUNDEW,662C EDGEDALE PLAINS WATERWAY SUNDEW SINGAPORE 823662
824662,1.40167256,103.9180028,WATERWAY SUNDEW,662D,EDGEDALE PLAINS,WATERWAY SUNDEW,662D EDGEDALE PLAINS WATERWAY SUNDEW SINGAPORE 824662
821663,1.400243477,103.91708,WATERWAY SUNBEAM,663A,PUNGGOL DRIVE,WATERWAY SUNBEAM,663A PUNGGOL DRIVE WATERWAY SUNBEAM SINGAPORE 821663
822663,1.400771226,103.9173487,WATERWAY SUNBEAM,663B,PUNGGOL DRIVE,WATERWAY SUNBEAM,663B PUNGGOL DRIVE WATERWAY SUNBEAM SINGAPORE 822663
823663,1.400365494,103.9176319,WATERWAY SUNBEAM,663C,PUNGGOL DRIVE,WATERWAY SUNBEAM,663C PUNGGOL DRIVE WATERWAY SUNBEAM SINGAPORE 823663
821664,1.399432183,103.9175107,WATERWAY SUNBEAM,664A,PUNGGOL DRIVE,WATERWAY SUNBEAM,664A PUNGGOL DRIVE WATERWAY SUNBEAM SINGAPORE 821664
822664,1.40006477,103.9178515,WATERWAY SUNBEAM,664B,PUNGGOL DRIVE,WATERWAY SUNBEAM,664B PUNGGOL DRIVE WATERWAY SUNBEAM SINGAPORE 822664
821665,1.402127691,103.9135785,WATERWAY WOODCRESS,665A,PUNGGOL DRIVE,WATERWAY WOODCRESS,665A PUNGGOL DRIVE WATERWAY WOODCRESS SINGAPORE 821665
822665,1.402040572,103.9141411,WATERWAY WOODCRESS,665B,PUNGGOL DRIVE,WATERWAY WOODCRESS,665B PUNGGOL DRIVE WATERWAY WOODCRESS SINGAPORE 822665
823665,1.401491646,103.9144591,WATERWAY WOODCRESS,665C,PUNGGOL DRIVE,WATERWAY WOODCRESS,665C PUNGGOL DRIVE WATERWAY WOODCRESS SINGAPORE 823665
821666,1.401536312,103.915078,WATERWAY WOODCRESS,666A,PUNGGOL DRIVE,WATERWAY WOODCRESS,666A PUNGGOL DRIVE WATERWAY WOODCRESS SINGAPORE 821666
822666,1.401796725,103.9152781,WATERWAY WOODCRESS,666B,PUNGGOL DRIVE,WATERWAY WOODCRESS,666B PUNGGOL DRIVE WATERWAY WOODCRESS SINGAPORE 822666
821667,1.40260031,103.9139714,WATERWAY WOODCRESS,667A,PUNGGOL DRIVE,WATERWAY WOODCRESS,667A PUNGGOL DRIVE WATERWAY WOODCRESS SINGAPORE 821667
822667,1.402110703,103.9149166,WATERWAY WOODCRESS,667B,PUNGGOL DRIVE,WATERWAY WOODCRESS,667B PUNGGOL DRIVE WATERWAY WOODCRESS SINGAPORE 822667
821668,1.405018801,103.9124119,WATERWAY RIDGES,668A,EDGEFIELD PLAINS,WATERWAY RIDGES,668A EDGEFIELD PLAINS WATERWAY RIDGES SINGAPORE 821668
822668,1.404782919,103.9129785,WATERWAY RIDGES,668B,EDGEFIELD PLAINS,WATERWAY RIDGES,668B EDGEFIELD PLAINS WATERWAY RIDGES SINGAPORE 822668
821669,1.404909749,103.9139695,WATERWAY RIDGES,669A,EDGEFIELD PLAINS,WATERWAY RIDGES,669A EDGEFIELD PLAINS WATERWAY RIDGES SINGAPORE 821669
822669,1.404536069,103.9140128,WATERWAY RIDGES,669B,EDGEFIELD PLAINS,WATERWAY RIDGES,669B EDGEFIELD PLAINS WATERWAY RIDGES SINGAPORE 822669
821670,1.405383412,103.9129608,WATERWAY RIDGES,670A,EDGEFIELD PLAINS,WATERWAY RIDGES,670A EDGEFIELD PLAINS WATERWAY RIDGES SINGAPORE 821670
822670,1.40532418,103.9132807,WATERWAY RIDGES,670B,EDGEFIELD PLAINS,WATERWAY RIDGES,670B EDGEFIELD PLAINS WATERWAY RIDGES SINGAPORE 822670
823670,1.405342858,103.9139333,WATERWAY RIDGES,670C,EDGEFIELD PLAINS,WATERWAY RIDGES,670C EDGEFIELD PLAINS WATERWAY RIDGES SINGAPORE 823670
821671,1.406059242,103.9120207,WATERWAY BANKS,671A,EDGEFIELD PLAINS,WATERWAY BANKS,671A EDGEFIELD PLAINS WATERWAY BANKS SINGAPORE 821671
822671,1.406191183,103.9116993,WATERWAY BANKS,671B,EDGEFIELD PLAINS,WATERWAY BANKS,671B EDGEFIELD PLAINS WATERWAY BANKS SINGAPORE 822671
822672,1.40665275,103.9123125,WATERWAY BANKS,672B,EDGEFIELD PLAINS,WATERWAY BANKS,672B EDGEFIELD PLAINS WATERWAY BANKS SINGAPORE 822672
823672,1.407437024,103.9111965,WATERWAY BANKS,672C,EDGEFIELD PLAINS,WATERWAY BANKS,672C EDGEFIELD PLAINS WATERWAY BANKS SINGAPORE 823672
824672,1.407590312,103.9109236,WATERWAY BANKS,672D,EDGEFIELD PLAINS,WATERWAY BANKS,672D EDGEFIELD PLAINS WATERWAY BANKS SINGAPORE 824672
821673,1.406676726,103.9116133,WATERWAY BANKS,673A,EDGEFIELD PLAINS,WATERWAY BANKS,673A EDGEFIELD PLAINS WATERWAY BANKS SINGAPORE 821673
822673,1.406977629,103.9110415,WATERWAY BANKS,673B,EDGEFIELD PLAINS,WATERWAY BANKS,673B EDGEFIELD PLAINS WATERWAY BANKS SINGAPORE 822673
823673,1.407221594,103.9105919,WATERWAY BANKS,673C,EDGEFIELD PLAINS,WATERWAY BANKS,673C EDGEFIELD PLAINS WATERWAY BANKS SINGAPORE 823673
821676,1.404827091,103.9098707,WATERWAY BROOKS,676A,PUNGGOL DRIVE,WATERWAY BROOKS,676A PUNGGOL DRIVE WATERWAY BROOKS SINGAPORE 821676
822676,1.404891408,103.9102097,WATERWAY BROOKS,676B,PUNGGOL DRIVE,WATERWAY BROOKS,676B PUNGGOL DRIVE WATERWAY BROOKS SINGAPORE 822676
823676,1.405331433,103.9105868,WATERWAY BROOKS,676C,PUNGGOL DRIVE,WATERWAY BROOKS,676C PUNGGOL DRIVE WATERWAY BROOKS SINGAPORE 823676
824676,1.405640867,103.9109233,WATERWAY BROOKS,676D,PUNGGOL DRIVE,WATERWAY BROOKS,676D PUNGGOL DRIVE WATERWAY BROOKS SINGAPORE 824676
821677,1.405289642,103.9092041,WATERWAY BROOKS,677A,PUNGGOL DRIVE,WATERWAY BROOKS,677A PUNGGOL DRIVE WATERWAY BROOKS SINGAPORE 821677
822677,1.405364683,103.909509,WATERWAY BROOKS,677B,PUNGGOL DRIVE,WATERWAY BROOKS,677B PUNGGOL DRIVE WATERWAY BROOKS SINGAPORE 822677
823677,1.405650635,103.9097496,WATERWAY BROOKS,677C,PUNGGOL DRIVE,WATERWAY BROOKS,677C PUNGGOL DRIVE WATERWAY BROOKS SINGAPORE 823677
824677,1.405880448,103.9101587,WATERWAY BROOKS,677D,PUNGGOL DRIVE,WATERWAY BROOKS,677D PUNGGOL DRIVE WATERWAY BROOKS SINGAPORE 824677
821678,1.405662132,103.908719,WATERWAY BROOKS,678A,PUNGGOL DRIVE,WATERWAY BROOKS,678A PUNGGOL DRIVE WATERWAY BROOKS SINGAPORE 821678
822678,1.405761701,103.90884,WATERWAY BROOKS,678B,PUNGGOL DRIVE,WATERWAY BROOKS,678B PUNGGOL DRIVE WATERWAY BROOKS SINGAPORE 822678
823678,1.406211791,103.9093728,WATERWAY BROOKS,678C,PUNGGOL DRIVE,WATERWAY BROOKS,678C PUNGGOL DRIVE WATERWAY BROOKS SINGAPORE 823678
821679,1.405911563,103.9082882,WATERWAY BROOKS,679A,PUNGGOL DRIVE,WATERWAY BROOKS,679A PUNGGOL DRIVE WATERWAY BROOKS SINGAPORE 821679
822679,1.40631693,103.908463,WATERWAY BROOKS,679B,PUNGGOL DRIVE,WATERWAY BROOKS,679B PUNGGOL DRIVE WATERWAY BROOKS SINGAPORE 822679
823679,1.406413808,103.9088057,WATERWAY BROOKS,679C,PUNGGOL DRIVE,WATERWAY BROOKS,679C PUNGGOL DRIVE WATERWAY BROOKS SINGAPORE 823679
821682,1.403547749,103.9162913,WATERWAY VIEW,682A,EDGEDALE PLAINS,WATERWAY VIEW,682A EDGEDALE PLAINS WATERWAY VIEW SINGAPORE 821682
822682,1.403411731,103.915952,WATERWAY VIEW,682B,EDGEDALE PLAINS,WATERWAY VIEW,682B EDGEDALE PLAINS WATERWAY VIEW SINGAPORE 822682
823682,1.403619895,103.9155247,WATERWAY VIEW,682C,EDGEDALE PLAINS,WATERWAY VIEW,682C EDGEDALE PLAINS WATERWAY VIEW SINGAPORE 823682
821683,1.404263444,103.9153714,WATERWAY VIEW,683A,EDGEDALE PLAINS,WATERWAY VIEW,683A EDGEDALE PLAINS WATERWAY VIEW SINGAPORE 821683
822683,1.404701058,103.9149881,WATERWAY VIEW,683B,EDGEDALE PLAINS,WATERWAY VIEW,683B EDGEDALE PLAINS WATERWAY VIEW SINGAPORE 822683
823683,1.404073549,103.9146487,WATERWAY VIEW,683C,EDGEDALE PLAINS,WATERWAY VIEW,683C EDGEDALE PLAINS WATERWAY VIEW SINGAPORE 823683
821684,1.402793795,103.9158786,WATERWAY VIEW,684A,EDGEDALE PLAINS,WATERWAY VIEW,684A EDGEDALE PLAINS WATERWAY VIEW SINGAPORE 821684
822684,1.403027132,103.9150056,WATERWAY VIEW,684B,EDGEDALE PLAINS,WATERWAY VIEW,684B EDGEDALE PLAINS WATERWAY VIEW SINGAPORE 822684
823684,1.403492387,103.9147653,WATERWAY VIEW,684C,EDGEDALE PLAINS,WATERWAY VIEW,684C EDGEDALE PLAINS WATERWAY VIEW SINGAPORE 823684
824684,1.403651736,103.9140948,WATERWAY VIEW,684D,EDGEDALE PLAINS,WATERWAY VIEW,684D EDGEDALE PLAINS WATERWAY VIEW SINGAPORE 824684
822303,1.403872,103.906212,CORALINUS,303B,PUNGGOL CTRL,CORALINUS,303B PUNGGOL CENTRAL CORALINUS SINGAPORE 822303
823303,1.403811,103.906184,CORALINUS,303C,PUNGGOL CTRL,CORALINUS,303c PUNGGOL CENTRAL CORALINUS SINGAPORE 823303
821316,1.40901,103.897189,WATERWAY CASCADIA,316C,PUNGGOL WAY,WATERWAY CASCADIA,316C PUNGGOL WAY WATERWAY CASCADIA SINGAPORE 821316
821313,1.412789,103.898101,BAYVIEW,323A,SUMANG WALK,BAYVIEW,323A SUMANG WALK PUNGGOL BAYVIEW SINGAPORE 821313
821313,1.412033,103.897869,BAYVIEW,323B,SUMANG WALK,BAYVIEW,323B SUMANG WALK PUNGGOL BAYVIEW SINGAPORE 821313
823603,1.403481,103.90789,PUNGGOL LODGE,603C,PUNGGOL RD,PUNGGOL LODGE,603C PUNGGOL ROAD PUNGGOL LODGE SINGAPORE 823603
822622,1.401517,103.910128,EDGEFIELD WALK,621B,EDGEFIELD WALK,EDGEFIELD WALK,621B EDGEFIELD WALK SINGAPORE 822622
822633,1.401332,103.913693,EDGEDALE GREEN,633B,PUNGGOL DR,EDGEDALE GREEN,633B PUNGGOL DRIVE EDGEDALE GREEN SINGAPORE 822633
821672,1.406507,103.912629,WATERWAY BANKS,672A,EDGEFIELD PLAINS,WATERWAY BANKS,672A EDGEFIELD PLAINS WATERWAY BANKS SINGAPORE 821672
